COSMOS 2251 DEB         
1 34056U 93036JT  17346.50103760  .00000886  00000-0  48900-3 0  9998
2 34056  74.0666 175.4053 0153312 208.4271 177.9796 14.07104639452230
